OBJECT_NAME,OBJECT_ID,EPOCH,MEAN_MOTION,ECCENTRICITY,INCLINATION,RA_OF_ASC_NODE,ARG_OF_PERICENTER,MEAN_ANOMALY,EPHEMERIS_TYPE,CLASSIFICATION_TYPE,NORAD_CAT_ID,ELEMENT_SET_NO,REV_AT_EPOCH,BSTAR,MEAN_MOTION_DOT,MEAN_MOTION_DDOT
KUZGTU 1 (RS47S),2023-091AV,2026-06-13T23:02:14.880480,15.29795850,.00123753,97.5072,229.4068,107.9347,252.3243,0,U,57217,999,16388,.4405765E-3,.12673E-3,0
SONATE-2,2024-043Q,2026-06-13T22:16:37.322400,15.58494125,.00069155,97.5521,315.1251,206.2507,153.8399,0,U,59112,999,12738,.50344188E-3,.38466E-3,0
MESAT1,2024-125G,2026-06-13T20:11:20.517216,15.62868303,.00092065,97.2294,22.2489,216.1475,143.9162,0,U,60209,999,10904,.64720369E-3,.58685E-3,0
OOV-CUBE (TUBSAT-30),2024-128F,2026-06-13T12:41:36.282624,15.02760687,.00450904,61.9948,238.3294,132.8997,227.5893,0,U,60240,999,10556,.17407525E-3,.2174E-4,0
COLIBRI-S (RS67S),2024-199M,2026-06-13T21:26:53.977056,15.47600531,.00062744,97.3001,38.7187,294.6495,65.4102,0,U,61746,999,13690,.4290632E-3,.2207E-3,0
HORS 3 (RS81S),2024-199U,2026-06-13T22:27:52.547040,15.54766225,.00037323,97.2987,40.7131,298.3147,61.7731,0,U,61753,999,13705,.57785301E-3,.38446E-3,0
HORS 4 (RS82S),2024-199V,2026-06-13T21:45:08.436096,15.59403676,.00029742,97.2935,41.8634,280.1050,79.9871,0,U,61754,999,13713,.635213E-3,.50288E-3,0
ARCTICSAT 1 (RS74S),2024-199AD,2026-06-13T21:59:06.795168,16.34840585,.00102835,97.2748,49.1240,233.0518,126.9838,0,U,61762,999,13760,.93371824E-3,.6613865E-1,.2463304E-5
SIT-2086,2024-199AF,2026-06-13T21:50:51.469152,15.52879346,.00043496,97.2944,41.1750,268.2521,91.8234,0,U,61764,999,13392,.57908121E-3,.35974E-3,0
HYPERVIEW 1G (RS66S),2024-199AP,2026-06-13T10:36:29.248416,15.74899790,.00028681,97.2884,43.9750,238.7842,121.3142,0,U,61772,999,13408,.88636789E-3,.132494E-2,0
ALTAIR (RS65S),2024-199AW,2026-06-13T22:07:32.347488,15.36974589,.00114028,97.3037,34.2950,324.4234,35.6249,0,U,61779,999,13661,.30842361E-3,.11099E-3,0
ASRTU-1 (AO-123),2024-199AY,2026-06-13T21:46:00.169824,15.35633458,.0012579,97.3008,33.6080,327.1211,32.9249,0,U,61781,999,13342,.23558478E-3,.8102E-4,0
SAMSAT-IONOSPHERE (RS75S),2024-199BB,2026-06-13T21:52:12.871776,15.57363959,.00058823,97.2955,40.7229,293.7217,66.3422,0,U,61784,999,13705,.61489813E-3,.45086E-3,0
RTU MIREA 1 (RS51S),2024-199BC,2026-06-13T22:37:44.429376,15.60760992,.00054158,97.2944,41.5704,285.5760,74.4899,0,U,61785,999,13396,.76662925E-3,.64065E-3,0
TEVEL2-4,2025-052D,2026-06-13T15:51:49.437504,15.34498104,.00047951,97.3918,61.0474,110.7775,249.3982,0,U,63213,999,6957,.58447481E-3,.19485E-3,0
TEVEL2-5,2025-052E,2026-06-13T22:36:25.608384,15.34336520,.00046971,97.3915,61.2775,110.9114,249.2632,0,U,63214,999,6961,.5668412E-3,.18796E-3,0
TEVEL2-6,2025-052F,2026-06-13T22:54:04.584672,15.34300916,.00046325,97.3920,61.2743,110.9610,249.2129,0,U,63215,999,6961,.56881808E-3,.18841E-3,0
TEVEL2-1,2025-052H,2026-06-13T23:34:15.711456,15.33772543,.00046017,97.3890,60.9305,120.0167,240.1533,0,U,63217,999,6960,.58033448E-3,.18905E-3,0
TEVEL2-3,2025-052J,2026-06-13T23:26:42.787968,15.33827114,.00045913,97.3894,60.9467,119.8547,240.3152,0,U,63218,999,6960,.5730211E-3,.18698E-3,0
TEVEL2-2,2025-052K,2026-06-13T15:45:00.318816,15.33768522,.00046134,97.3888,60.6072,120.9946,239.1750,0,U,63219,999,6955,.57639862E-3,.18774E-3,0
TEVEL2-9,2025-052AD,2026-06-13T16:40:00.359904,15.31800703,.00075109,97.3952,60.0277,140.3804,219.7988,0,U,63237,999,6949,.53567191E-3,.16401E-3,0
TEVEL2-7,2025-052AE,2026-06-13T16:03:51.883200,15.31507331,.00075563,97.3956,59.9204,140.9014,219.2775,0,U,63238,999,6948,.54930719E-3,.16668E-3,0
TEVEL2-8,2025-052AF,2026-06-13T16:15:41.700672,15.31490924,.00076295,97.3953,59.9057,141.6953,218.4831,0,U,63239,999,6948,.52565278E-3,.15937E-3,0
INNOSAT 16 (RS92S7),2025-155C,2026-06-13T22:03:20.305728,15.25425991,.00101638,97.4558,132.0571,186.7964,173.3138,0,U,64878,999,8017,.24699454E-3,.6178E-4,0
GEOSCAN 6 (RS92S6),2025-155D,2026-06-13T21:52:55.602624,15.30096702,.000793,97.4549,133.4511,172.9699,187.1654,0,U,64879,999,8026,.3563914E-3,.10316E-3,0
GEOSCAN 1 (RS92S1),2025-155E,2026-06-13T21:58:16.794624,15.30687842,.00078698,97.4546,133.5997,172.7051,187.4306,0,U,64880,999,8027,.38234627E-3,.11279E-3,0
239ALFEROV (RS61S),2025-155F,2026-06-13T22:55:16.336416,15.32860912,.00075908,97.4546,134.1902,169.3186,190.8219,0,U,64881,999,8031,.43328248E-3,.13693E-3,0
GEOSCAN 2 (RS92S2),2025-155Q,2026-06-13T21:50:01.155840,15.30958414,.00077142,97.4545,133.7452,159.3090,200.8465,0,U,64890,999,8028,.36889597E-3,.1097E-3,0
GEOSCAN 5 (RS92S5),2025-155R,2026-06-13T22:40:25.960224,15.33179749,.0006301,97.4538,134.3160,172.6854,187.4481,0,U,64891,999,8032,.4572731E-3,.14599E-3,0
GEOSCAN 4 (RS92S4),2025-155S,2026-06-13T22:18:08.184960,15.33331976,.00063692,97.4542,134.3479,172.6856,187.4481,0,U,64892,999,8032,.4737946E-3,.15204E-3,0
