KUZGTU 1 (RS47S)        
1 57217U 23091AV  26164.95989445  .00012673  00000+0  44058-3 0  9991
2 57217  97.5072 229.4068 0012375 107.9347 252.3243 15.29795850163882
SONATE-2                
1 59112U 24043Q   26164.92820975  .00038466  00000+0  50344-3 0  9997
2 59112  97.5521 315.1251 0006915 206.2507 153.8399 15.58494125127383
MESAT1                  
1 60209U 24125G   26164.84120969  .00058685  00000+0  64720-3 0  9992
2 60209  97.2294  22.2489 0009206 216.1475 143.9162 15.62868303109044
OOV-CUBE (TUBSAT-30)    
1 60240U 24128F   26164.52889216  .00002174  00000+0  17408-3 0  9995
2 60240  61.9948 238.3294 0045090 132.8997 227.5893 15.02760687105564
COLIBRI-S (RS67S)       
1 61746U 24199M   26164.89368029  .00022070  00000+0  42906-3 0  9997
2 61746  97.3001  38.7187 0006274 294.6495  65.4102 15.47600531136907
HORS 3 (RS81S)          
1 61753U 24199U   26164.93602485  .00038446  00000+0  57785-3 0  9992
2 61753  97.2987  40.7131 0003732 298.3147  61.7731 15.54766225137055
HORS 4 (RS82S)          
1 61754U 24199V   26164.90634764  .00050288  00000+0  63521-3 0  9998
2 61754  97.2935  41.8634 0002974 280.1050  79.9871 15.59403676137136
ARCTICSAT 1 (RS74S)     
1 61762U 24199AD  26164.91605087  .06613865  24633-5  93372-3 0  9997
2 61762  97.2748  49.1240 0010283 233.0518 126.9838 16.34840585137605
SIT-2086                
1 61764U 24199AF  26164.91031793  .00035974  00000+0  57908-3 0  9990
2 61764  97.2944  41.1750 0004349 268.2521  91.8234 15.52879346133920
HYPERVIEW 1G (RS66S)    
1 61772U 24199AP  26164.44200519  .00132494  00000+0  88637-3 0  9999
2 61772  97.2884  43.9750 0002868 238.7842 121.3142 15.74899790134088
ALTAIR (RS65S)          
1 61779U 24199AW  26164.92190217  .00011099  00000+0  30842-3 0  9994
2 61779  97.3037  34.2950 0011402 324.4234  35.6249 15.36974589136617
ASRTU-1 (AO-123)        
1 61781U 24199AY  26164.90694641  .00008102  00000+0  23558-3 0  9992
2 61781  97.3008  33.6080 0012579 327.1211  32.9249 15.35633458133428
SAMSAT-IONOSPHERE (RS7*)
1 61784U 24199BB  26164.91126009  .00045086  00000+0  61490-3 0  9993
2 61784  97.2955  40.7229 0005882 293.7217  66.3422 15.57363959137055
RTU MIREA 1 (RS51S)     
1 61785U 24199BC  26164.94287534  .00064065  00000+0  76663-3 0  9994
2 61785  97.2944  41.5704 0005415 285.5760  74.4899 15.60760992133961
TEVEL2-4                
1 63213U 25052D   26164.66098886  .00019485  00000+0  58447-3 0  9996
2 63213  97.3918  61.0474 0004795 110.7775 249.3982 15.34498104 69572
TEVEL2-5                
1 63214U 25052E   26164.94196306  .00018796  00000+0  56684-3 0  9999
2 63214  97.3915  61.2775 0004697 110.9114 249.2632 15.34336520 69615
TEVEL2-6                
1 63215U 25052F   26164.95421973  .00018841  00000+0  56882-3 0  9993
2 63215  97.3920  61.2743 0004632 110.9610 249.2129 15.34300916 69618
TEVEL2-1                
1 63217U 25052H   26164.98212629  .00018905  00000+0  58033-3 0  9995
2 63217  97.3890  60.9305 0004601 120.0167 240.1533 15.33772543 69607
TEVEL2-3                
1 63218U 25052J   26164.97688412  .00018698  00000+0  57302-3 0  9999
2 63218  97.3894  60.9467 0004591 119.8547 240.3152 15.33827114 69601
TEVEL2-2                
1 63219U 25052K   26164.65625369  .00018774  00000+0  57640-3 0  9997
2 63219  97.3888  60.6072 0004613 120.9946 239.1750 15.33768522 69556
TEVEL2-9                
1 63237U 25052AD  26164.69444861  .00016401  00000+0  53567-3 0  9996
2 63237  97.3952  60.0277 0007510 140.3804 219.7988 15.31800703 69493
TEVEL2-7                
1 63238U 25052AE  26164.66935050  .00016668  00000+0  54931-3 0  9990
2 63238  97.3956  59.9204 0007556 140.9014 219.2775 15.31507331 69483
TEVEL2-8                
1 63239U 25052AF  26164.67756598  .00015937  00000+0  52565-3 0  9999
2 63239  97.3953  59.9057 0007629 141.6953 218.4831 15.31490924 69481
INNOSAT 16 (RS92S7)     
1 64878U 25155C   26164.91898502  .00006178  00000+0  24699-3 0  9996
2 64878  97.4558 132.0571 0010163 186.7964 173.3138 15.25425991 80179
GEOSCAN 6 (RS92S6)      
1 64879U 25155D   26164.91175466  .00010316  00000+0  35639-3 0  9999
2 64879  97.4549 133.4511 0007930 172.9699 187.1654 15.30096702 80265
GEOSCAN 1 (RS92S1)      
1 64880U 25155E   26164.91547216  .00011279  00000+0  38235-3 0  9991
2 64880  97.4546 133.5997 0007869 172.7051 187.4306 15.30687842 80273
239ALFEROV (RS61S)      
1 64881U 25155F   26164.95505019  .00013693  00000+0  43328-3 0  9992
2 64881  97.4546 134.1902 0007590 169.3186 190.8219 15.32860912 80318
GEOSCAN 2 (RS92S2)      
1 64890U 25155Q   26164.90973560  .00010970  00000+0  36890-3 0  9998
2 64890  97.4545 133.7452 0007714 159.3090 200.8465 15.30958414 80287
GEOSCAN 5 (RS92S5)      
1 64891U 25155R   26164.94474491  .00014599  00000+0  45727-3 0  9992
2 64891  97.4538 134.3160 0006301 172.6854 187.4481 15.33179749 80322
GEOSCAN 4 (RS92S4)      
1 64892U 25155S   26164.92926140  .00015204  00000+0  47379-3 0  9993
2 64892  97.4542 134.3479 0006369 172.6856 187.4481 15.33331976 80329
